{
    "links": {
        "self": "http://www.neowsapp.com/rest/v1/neo/3674337?api_key=iIulBulltgU6a56xZRHN4H3l9WmuAYTsLGpBGhQ2"
    },
    "id": "3674337",
    "neo_reference_id": "3674337",
    "name": "(2014 ML55)",
    "designation": "2014 ML55",
    "nasa_jpl_url": "http://ssd.jpl.nasa.gov/sbdb.cgi?sstr=3674337",
    "absolute_magnitude_h": 23.3,
    "estimated_diameter": {
        "kilometers": {
            "estimated_diameter_min": 0.058150704,
            "estimated_diameter_max": 0.130028927
        },
        "meters": {
            "estimated_diameter_min": 58.1507039646,
            "estimated_diameter_max": 130.0289270043
        },
        "miles": {
            "estimated_diameter_min": 0.0361331611,
            "estimated_diameter_max": 0.0807962044
        },
        "feet": {
            "estimated_diameter_min": 190.7831555951,
            "estimated_diameter_max": 426.6041048727
        }
    },
    "is_potentially_hazardous_asteroid": false,
    "close_approach_data": [
        {
            "close_approach_date": "2014-07-19",
            "close_approach_date_full": "2014-Jul-19 23:12",
            "epoch_date_close_approach": 1405811520000,
            "relative_velocity": {
                "kilometers_per_second": "5.4924190377",
                "kilometers_per_hour": "19772.7085355693",
                "miles_per_hour": "12285.9921453375"
            },
            "miss_distance": {
                "astronomical": "0.1794238954",
                "lunar": "69.7958953106",
                "kilometers": "26841432.578942798",
                "miles": "16678492.8125666924"
            },
            "orbiting_body": "Earth"
        }
    ],
    "orbital_data": {
        "orbit_id": "8",
        "orbit_determination_date": "2017-04-06 08:39:49",
        "first_observation_date": "2014-06-30",
        "last_observation_date": "2014-07-29",
        "data_arc_in_days": 29,
        "observations_used": 24,
        "orbit_uncertainty": "7",
        "minimum_orbit_intersection": ".169269",
        "jupiter_tisserand_invariant": "3.497",
        "epoch_osculation": "2459000.5",
        "eccentricity": ".4648614409900949",
        "semi_major_axis": "2.213912891023605",
        "inclination": "6.838466880300836",
        "ascending_node_longitude": "122.3030567491585",
        "orbital_period": "1203.203870931657",
        "perihelion_distance": "1.184750154275825",
        "perihelion_argument": "175.7031183599542",
        "aphelion_distance": "3.243075627771385",
        "perihelion_time": "2459262.580547477525",
        "mean_anomaly": "281.5851948524291",
        "mean_motion": ".2992011650704275",
        "equinox": "J2000",
        "orbit_class": {
            "orbit_class_type": "AMO",
            "orbit_class_description": "Near-Earth asteroid orbits similar to that of 1221 Amor",
            "orbit_class_range": "1.017 AU < q (perihelion) < 1.3 AU"
        }
    },
    "is_sentry_object": false
}